{"type": "FeatureCollection", "features": [ {"type": "Feature", "properties": {"norad_id": 67162, "name": "ARIANE 6 R/B", "group": "last-30-days", "lat": 50.24287810458422, "lon": -132.71069851196543, "alt_km": 22911.367300834445, "timestamp": "2025-12-18T21:31:49.702707+00:00", "meta": {"OBJECT_NAME": "ARIANE 6 R/B", "OBJECT_ID": "2025-302C", "EPOCH": "2025-12-18T03:29:05.112384", "MEAN_MOTION": 1.73130383, "ECCENTRICITY": 4.977e-05, "INCLINATION": 54.232, "RA_OF_ASC_NODE": 107.26, "ARG_OF_PERICENTER": 134.264, "MEAN_ANOMALY": 225.699, "EPHEMERIS_TYPE": 0, "CLASSIFICATION_TYPE": "U", "NORAD_CAT_ID": 67162, "ELEMENT_SET_NO": 999, "REV_AT_EPOCH": 6, "BSTAR": 0, "MEAN_MOTION_DOT": -7e-08, "MEAN_MOTION_DDOT": 0}, "tle": {"line1": "1 67162U 25302C   25352.14519806 -.00000007  00000+0  00000+0 0  9991", "line2": "2 67162  54.2320 107.2600 0000497 134.2640 225.6990  1.73130383    64"}}, "geometry": {"type": "Point", "coordinates": [-132.71069851196543, 50.24287810458422]}}, {"type": "Feature", "properties": {"norad_id": 67219, "name": "DISKSAT A", "group": "last-30-days", "lat": -32.121586290143675, "lon": 176.79572429227724, "alt_km": 550.023748840883, "timestamp": "2025-12-18T21:31:49.702718+00:00", "meta": {"OBJECT_NAME": "DISKSAT A", "OBJECT_ID": "2025-305A", "EPOCH": "2025-12-18T06:11:23.597664", "MEAN_MOTION": 15.05868419, "ECCENTRICITY": 0.00043552, "INCLINATION": 45.0103, "RA_OF_ASC_NODE": 321.2665, "ARG_OF_PERICENTER": 276.2808, "MEAN_ANOMALY": 83.7571, "EPHEMERIS_TYPE": 0, "CLASSIFICATION_TYPE": "U", "NORAD_CAT_ID": 67219, "ELEMENT_SET_NO": 999, "REV_AT_EPOCH": 1, "BSTAR": 6.4032814e-05, "MEAN_MOTION_DOT": 7.05e-06, "MEAN_MOTION_DDOT": 0}, "tle": {"line1": "1 67219U 25305A   25352.25791201  .00000705  00000+0  64033-4 0  9995", "line2": "2 67219  45.0103 321.2665 0004355 276.2808  83.7571 15.05868419    14"}}, "geometry": {"type": "Point", "coordinates": [176.79572429227724, -32.121586290143675]}}, {"type": "Feature", "properties": {"norad_id": 67220, "name": "DISKSAT B", "group": "last-30-days", "lat": -31.54257382336876, "lon": 175.7834482464528, "alt_km": 552.0842580750214, "timestamp": "2025-12-18T21:31:49.702728+00:00", "meta": {"OBJECT_NAME": "DISKSAT B", "OBJECT_ID": "2025-305B", "EPOCH": "2025-12-18T06:11:23.538912", "MEAN_MOTION": 15.05411903, "ECCENTRICITY": 0.0003917, "INCLINATION": 45.0065, "RA_OF_ASC_NODE": 321.27, "ARG_OF_PERICENTER": 288.0087, "MEAN_ANOMALY": 72.0361, "EPHEMERIS_TYPE": 0, "CLASSIFICATION_TYPE": "U", "NORAD_CAT_ID": 67220, "ELEMENT_SET_NO": 999, "REV_AT_EPOCH": 1, "BSTAR": 0.00011832, "MEAN_MOTION_DOT": 1.486e-05, "MEAN_MOTION_DDOT": 0}, "tle": {"line1": "1 67220U 25305B   25352.25791133  .00001486  00000+0  11832-3 0  9996", "line2": "2 67220  45.0065 321.2700 0003917 288.0087  72.0361 15.05411903    16"}}, "geometry": {"type": "Point", "coordinates": [175.7834482464528, -31.54257382336876]}}, {"type": "Feature", "properties": {"norad_id": 67221, "name": "DISKSAT C", "group": "last-30-days", "lat": -42.476951231388725, "lon": -155.95646025659255, "alt_km": 495.9616406983441, "timestamp": "2025-12-18T21:31:49.702740+00:00", "meta": {"OBJECT_NAME": "DISKSAT C", "OBJECT_ID": "2025-305C", "EPOCH": "2025-12-18T06:11:31.580160", "MEAN_MOTION": 15.16973586, "ECCENTRICITY": 0.00625938, "INCLINATION": 45.0151, "RA_OF_ASC_NODE": 321.1654, "ARG_OF_PERICENTER": 307.7869, "MEAN_ANOMALY": 51.7353, "EPHEMERIS_TYPE": 0, "CLASSIFICATION_TYPE": "U", "NORAD_CAT_ID": 67221, "ELEMENT_SET_NO": 999, "REV_AT_EPOCH": 1, "BSTAR": 0.00014323237, "MEAN_MOTION_DOT": 2.734e-05, "MEAN_MOTION_DDOT": 0}, "tle": {"line1": "1 67221U 25305C   25352.25800440  .00002734  00000+0  14323-3 0  9994", "line2": "2 67221  45.0151 321.1654 0062593 307.7869  51.7353 15.16973586    19"}}, "geometry": {"type": "Point", "coordinates": [-155.95646025659255, -42.476951231388725]}}, {"type": "Feature", "properties": {"norad_id": 67223, "name": "ELECTRON KICK STAGE R/B", "group": "last-30-days", "lat": -22.600029004306936, "lon": -66.94046714994192, "alt_km": 546.3048446782559, "timestamp": "2025-12-18T21:31:49.702753+00:00", "meta": {"OBJECT_NAME": "ELECTRON KICK STAGE R/B", "OBJECT_ID": "2025-305E", "EPOCH": "2025-12-18T06:11:27.945312", "MEAN_MOTION": 15.48092024, "ECCENTRICITY": 0.01803623, "INCLINATION": 44.9944, "RA_OF_ASC_NODE": 321.2861, "ARG_OF_PERICENTER": 136.421, "MEAN_ANOMALY": 225.1089, "EPHEMERIS_TYPE": 0, "CLASSIFICATION_TYPE": "U", "NORAD_CAT_ID": 67223, "ELEMENT_SET_NO": 999, "REV_AT_EPOCH": 1, "BSTAR": 0.00018043632, "MEAN_MOTION_DOT": 0.00018378, "MEAN_MOTION_DDOT": 0}, "tle": {"line1": "1 67223U 25305E   25352.25796233  .00018378  00000+0  18044-3 0  9995", "line2": "2 67223  44.9944 321.2861 0180362 136.4210 225.1089 15.48092024    19"}}, "geometry": {"type": "Point", "coordinates": [-66.94046714994192, -22.600029004306936]}}, {"type": "Feature", "properties": {"norad_id": 67224, "name": "ELECTRON R/B", "group": "last-30-days", "lat": -1.1709919188441926, "lon": -43.5745099805864, "alt_km": 338.9468431910391, "timestamp": "2025-12-18T21:31:49.702765+00:00", "meta": {"OBJECT_NAME": "ELECTRON R/B", "OBJECT_ID": "2025-305F", "EPOCH": "2025-12-18T06:11:42.768096", "MEAN_MOTION": 15.62545425, "ECCENTRICITY": 0.02518731, "INCLINATION": 44.9858, "RA_OF_ASC_NODE": 321.2834, "ARG_OF_PERICENTER": 277.1091, "MEAN_ANOMALY": 80.123, "EPHEMERIS_TYPE": 0, "CLASSIFICATION_TYPE": "U", "NORAD_CAT_ID": 67224, "ELEMENT_SET_NO": 999, "REV_AT_EPOCH": 1, "BSTAR": 0.00024017545, "MEAN_MOTION_DOT": 0.0012651, "MEAN_MOTION_DDOT": 8.585117e-06}, "tle": {"line1": "1 67224U 25305F   25352.25813389  .00126510  85851-5  24018-3 0  9997", "line2": "2 67224  44.9858 321.2834 0251873 277.1091  80.1230 15.62545425    11"}}, "geometry": {"type": "Point", "coordinates": [-43.5745099805864, -1.1709919188441926]}}]}